{
    "links": {
        "self": "http://www.neowsapp.com/rest/v1/neo/3459811?api_key=iIulBulltgU6a56xZRHN4H3l9WmuAYTsLGpBGhQ2"
    },
    "id": "3459811",
    "neo_reference_id": "3459811",
    "name": "(2009 JQ2)",
    "designation": "2009 JQ2",
    "nasa_jpl_url": "http://ssd.jpl.nasa.gov/sbdb.cgi?sstr=3459811",
    "absolute_magnitude_h": 21.3,
    "estimated_diameter": {
        "kilometers": {
            "estimated_diameter_min": 0.1460679643,
            "estimated_diameter_max": 0.3266178974
        },
        "meters": {
            "estimated_diameter_min": 146.0679642714,
            "estimated_diameter_max": 326.6178974458
        },
        "miles": {
            "estimated_diameter_min": 0.090762397,
            "estimated_diameter_max": 0.2029508896
        },
        "feet": {
            "estimated_diameter_min": 479.2256199,
            "estimated_diameter_max": 1071.581062656
        }
    },
    "is_potentially_hazardous_asteroid": false,
    "close_approach_data": [
        {
            "close_approach_date": "2008-11-30",
            "close_approach_date_full": "2008-Nov-30 07:04",
            "epoch_date_close_approach": 1228028640000,
            "relative_velocity": {
                "kilometers_per_second": "19.0337903037",
                "kilometers_per_hour": "68521.6450934237",
                "miles_per_hour": "42576.685530411"
            },
            "miss_distance": {
                "astronomical": "0.4949534737",
                "lunar": "192.5369012693",
                "kilometers": "74043985.414621019",
                "miles": "46008799.0802833022"
            },
            "orbiting_body": "Earth"
        },
        {
            "close_approach_date": "2009-05-02",
            "close_approach_date_full": "2009-May-02 08:59",
            "epoch_date_close_approach": 1241254740000,
            "relative_velocity": {
                "kilometers_per_second": "20.0161252543",
                "kilometers_per_hour": "72058.0509154472",
                "miles_per_hour": "44774.0705813233"
            },
            "miss_distance": {
                "astronomical": "0.2060327325",
                "lunar": "80.1467329425",
                "kilometers": "30822057.932279775",
                "miles": "19151938.711919895"
            },
            "orbiting_body": "Earth"
        }
    ],
    "orbital_data": {
        "orbit_id": "8",
        "orbit_determination_date": "2017-04-06 09:00:34",
        "first_observation_date": "2009-05-13",
        "last_observation_date": "2009-05-17",
        "data_arc_in_days": 4,
        "observations_used": 27,
        "orbit_uncertainty": "9",
        "minimum_orbit_intersection": ".196982",
        "jupiter_tisserand_invariant": "4.192",
        "epoch_osculation": "2454965.5",
        "eccentricity": ".3248517840824635",
        "semi_major_axis": "1.54892606871729",
        "inclination": "36.20911033342129",
        "ascending_node_longitude": "46.51501691667048",
        "orbital_period": "704.1164010512089",
        "perihelion_distance": "1.045754671882642",
        "perihelion_argument": "113.7615892769509",
        "aphelion_distance": "2.052097465551939",
        "perihelion_time": "2454895.536726674677",
        "mean_anomaly": "35.77075943624341",
        "mean_motion": ".5112791002489629",
        "equinox": "J2000",
        "orbit_class": {
            "orbit_class_type": "AMO",
            "orbit_class_description": "Near-Earth asteroid orbits similar to that of 1221 Amor",
            "orbit_class_range": "1.017 AU < q (perihelion) < 1.3 AU"
        }
    },
    "is_sentry_object": false
}